STARLINK-2407           
1 47822U 21018AM  26068.80390786  .00002317  00000+0  90314-4 0  9991
2 47822  53.1597 254.7615 0001252 109.2290 250.8847 15.30202412276579
KUIPER-00208            
1 67775U 26030M   26068.67231510  .00043852  00000+0  13883-2 0  9996
2 67775  51.8846 219.6993 0015524  57.3146 302.9333 15.32208734  5089
